[
    {
        "Altitude(m)": 604221.2192521007,
        "Argument of Periapsis(deg)": 0.0,
        "Eccentricity": 0.0,
        "Inclination(deg)": 60.0,
        "Latitude(deg)": 14.117330965739832,
        "Longitude(deg)": 158.33417212602413,
        "Mean Anomaly(deg)": 16.363599999999984,
        "RAAN(deg)": 250.00000000000003,
        "Satellite Name": "Test1 1101",
        "Satellite Number": 1101,
        "Semi-Major Axis(m)": 6980739.136638005,
        "Time(s)": 0
    },
    {
        "Altitude(m)": 604235.360613496,
        "Argument of Periapsis(deg)": 0.00010418945913296404,
        "Eccentricity": 0.0,
        "Inclination(deg)": 60.0,
        "Latitude(deg)": 14.651727352755884,
        "Longitude(deg)": 158.62261990504575,
        "Mean Anomaly(deg)": 16.983706145461838,
        "RAAN(deg)": 249.99957995086027,
        "Satellite Name": "Test1 1101",
        "Satellite Number": 1101,
        "Semi-Major Axis(m)": 6980739.136638005,
        "Time(s)": 10
    },
    {
        "Altitude(m)": 604252.3990626865,
        "Argument of Periapsis(deg)": 0.0002083789182659281,
        "Eccentricity": 0.0,
        "Inclination(deg)": 60.0,
        "Latitude(deg)": 15.185633923217035,
        "Longitude(deg)": 158.91267069508203,
        "Mean Anomaly(deg)": 17.60381229092364,
        "RAAN(deg)": 249.99915990172053,
        "Satellite Name": "Test1 1101",
        "Satellite Number": 1101,
        "Semi-Major Axis(m)": 6980739.136638005,
        "Time(s)": 20
    },
    {
        "Altitude(m)": 604272.3027706904,
        "Argument of Periapsis(deg)": 0.00031256837739889213,
        "Eccentricity": 0.0,
        "Inclination(deg)": 60.0,
        "Latitude(deg)": 15.719029372426677,
        "Longitude(deg)": 159.20439200844618,
        "Mean Anomaly(deg)": 18.223918436385496,
        "RAAN(deg)": 249.99873985258083,
        "Satellite Name": "Test1 1101",
        "Satellite Number": 1101,
        "Semi-Major Axis(m)": 6980739.136638005,
        "Time(s)": 30
    },
    {
        "Altitude(m)": 604295.0386338027,
        "Argument of Periapsis(deg)": 0.0004167578365318562,
        "Eccentricity": 0.0,
        "Inclination(deg)": 60.0,
        "Latitude(deg)": 16.251892059967947,
        "Longitude(deg)": 159.49785288006996,
        "Mean Anomaly(deg)": 18.844024581847346,
        "RAAN(deg)": 249.99831980344106,
        "Satellite Name": "Test1 1101",
        "Satellite Number": 1101,
        "Semi-Major Axis(m)": 6980739.136638005,
        "Time(s)": 40
    },
    {
        "Altitude(m)": 604320.5722925186,
        "Argument of Periapsis(deg)": 0.0005209472956648203,
        "Eccentricity": 0.0,
        "Inclination(deg)": 60.0,
        "Latitude(deg)": 16.784199993668963,
        "Longitude(deg)": 159.79312290308533,
        "Mean Anomaly(deg)": 19.46413072730915,
        "RAAN(deg)": 249.99789975430133,
        "Satellite Name": "Test1 1101",
        "Satellite Number": 1101,
        "Semi-Major Axis(m)": 6980739.136638005,
        "Time(s)": 50
    },
    {
        "Altitude(m)": 604348.8681510681,
        "Argument of Periapsis(deg)": 0.0006251367547977843,
        "Eccentricity": 0.0,
        "Inclination(deg)": 60.0,
        "Latitude(deg)": 17.3159308130826,
        "Longitude(deg)": 160.09027277813223,
        "Mean Anomaly(deg)": 20.084236872771,
        "RAAN(deg)": 249.99747970516157,
        "Satellite Name": "Test1 1101",
        "Satellite Number": 1101,
        "Semi-Major Axis(m)": 6980739.136638005,
        "Time(s)": 60
    },
    {
        "Altitude(m)": 604379.8893975278,
        "Argument of Periapsis(deg)": 0.0007293262139307483,
        "Eccentricity": 0.0,
        "Inclination(deg)": 60.0,
        "Latitude(deg)": 17.847061772459362,
        "Longitude(deg)": 160.38937486354624,
        "Mean Anomaly(deg)": 20.704343018232805,
        "RAAN(deg)": 249.99705965602186,
        "Satellite Name": "Test1 1101",
        "Satellite Number": 1101,
        "Semi-Major Axis(m)": 6980739.136638005,
        "Time(s)": 70
    },
    {
        "Altitude(m)": 604413.5980244701,
        "Argument of Periapsis(deg)": 0.0008335156730637124,
        "Eccentricity": 0.0,
        "Inclination(deg)": 60.0,
        "Latitude(deg)": 18.377569723193293,
        "Longitude(deg)": 160.69050221357625,
        "Mean Anomaly(deg)": 21.32444916369466,
        "RAAN(deg)": 249.9966396068821,
        "Satellite Name": "Test1 1101",
        "Satellite Number": 1101,
        "Semi-Major Axis(m)": 6980739.136638005,
        "Time(s)": 80
    },
    {
        "Altitude(m)": 604449.9548502455,
        "Argument of Periapsis(deg)": 0.0009377051321966765,
        "Eccentricity": 0.0,
        "Inclination(deg)": 60.0,
        "Latitude(deg)": 18.907431095709267,
        "Longitude(deg)": 160.99372913040187,
        "Mean Anomaly(deg)": 21.94455530915646,
        "RAAN(deg)": 249.9962195577423,
        "Satellite Name": "Test1 1101",
        "Satellite Number": 1101,
        "Semi-Major Axis(m)": 6980739.136638005,
        "Time(s)": 90
    },
    {
        "Altitude(m)": 604488.919540771,
        "Argument of Periapsis(deg)": 0.0010418945913296407,
        "Eccentricity": 0.0,
        "Inclination(deg)": 60.0,
        "Latitude(deg)": 19.4366218807707,
        "Longitude(deg)": 161.29913171709939,
        "Mean Anomaly(deg)": 22.564661454618314,
        "RAAN(deg)": 249.99579950860257,
        "Satellite Name": "Test1 1101",
        "Satellite Number": 1101,
        "Semi-Major Axis(m)": 6980739.136638005,
        "Time(s)": 100
    },
    {
        "Altitude(m)": 604530.4506318506,
        "Argument of Periapsis(deg)": 0.0011460840504626045,
        "Eccentricity": 0.0,
        "Inclination(deg)": 60.0,
        "Latitude(deg)": 19.965117610182116,
        "Longitude(deg)": 161.6067869187013,
        "Mean Anomaly(deg)": 23.184767600080114,
        "RAAN(deg)": 249.9953794594629,
        "Satellite Name": "Test1 1101",
        "Satellite Number": 1101,
        "Semi-Major Axis(m)": 6980739.136638005,
        "Time(s)": 110
    },
    {
        "Altitude(m)": 604574.5055520426,
        "Argument of Periapsis(deg)": 0.0012502735095955685,
        "Eccentricity": 0.0,
        "Inclination(deg)": 60.0,
        "Latitude(deg)": 20.492893336855964,
        "Longitude(deg)": 161.916773077116,
        "Mean Anomaly(deg)": 23.80487374554197,
        "RAAN(deg)": 249.9949594103231,
        "Satellite Name": "Test1 1101",
        "Satellite Number": 1101,
        "Semi-Major Axis(m)": 6980739.136638005,
        "Time(s)": 120
    },
    {
        "Altitude(m)": 604621.0406460543,
        "Argument of Periapsis(deg)": 0.0013544629687285324,
        "Eccentricity": 0.0,
        "Inclination(deg)": 60.0,
        "Latitude(deg)": 21.019923614216978,
        "Longitude(deg)": 162.22917048704923,
        "Mean Anomaly(deg)": 24.424979891003822,
        "RAAN(deg)": 249.99453936118334,
        "Satellite Name": "Test1 1101",
        "Satellite Number": 1101,
        "Semi-Major Axis(m)": 6980739.136638005,
        "Time(s)": 130
    },
    {
        "Altitude(m)": 604670.0111986045,
        "Argument of Periapsis(deg)": 0.0014586524278614966,
        "Eccentricity": 0.0,
        "Inclination(deg)": 60.0,
        "Latitude(deg)": 21.546182474919124,
        "Longitude(deg)": 162.54406044006643,
        "Mean Anomaly(deg)": 25.045086036465623,
        "RAAN(deg)": 249.9941193120436,
        "Satellite Name": "Test1 1101",
        "Satellite Number": 1101,
        "Semi-Major Axis(m)": 6980739.136638005,
        "Time(s)": 140
    },
    {
        "Altitude(m)": 604721.3714587918,
        "Argument of Periapsis(deg)": 0.0015628418869944607,
        "Eccentricity": 0.0,
        "Inclination(deg)": 60.0,
        "Latitude(deg)": 22.071643408839805,
        "Longitude(deg)": 162.8615257825554,
        "Mean Anomaly(deg)": 25.665192181927477,
        "RAAN(deg)": 249.99369926290387,
        "Satellite Name": "Test1 1101",
        "Satellite Number": 1101,
        "Semi-Major Axis(m)": 6980739.136638005,
        "Time(s)": 150
    },
    {
        "Altitude(m)": 604775.0746649484,
        "Argument of Periapsis(deg)": 0.0016670313461274247,
        "Eccentricity": 0.0,
        "Inclination(deg)": 60.0,
        "Latitude(deg)": 22.596279340323306,
        "Longitude(deg)": 163.1816514747214,
        "Mean Anomaly(deg)": 26.285298327389278,
        "RAAN(deg)": 249.99327921376414,
        "Satellite Name": "Test1 1101",
        "Satellite Number": 1101,
        "Semi-Major Axis(m)": 6980739.136638005,
        "Time(s)": 160
    },
    {
        "Altitude(m)": 604831.0730699335,
        "Argument of Periapsis(deg)": 0.0017712208052603888,
        "Eccentricity": 0.0,
        "Inclination(deg)": 60.0,
        "Latitude(deg)": 23.120062604645693,
        "Longitude(deg)": 163.50452363774616,
        "Mean Anomaly(deg)": 26.90540447285113,
        "RAAN(deg)": 249.99285916462438,
        "Satellite Name": "Test1 1101",
        "Satellite Number": 1101,
        "Semi-Major Axis(m)": 6980739.136638005,
        "Time(s)": 170
    },
    {
        "Altitude(m)": 604889.3179668918,
        "Argument of Periapsis(deg)": 0.001875410264393353,
        "Eccentricity": 0.0,
        "Inclination(deg)": 60.0,
        "Latitude(deg)": 23.642964923662493,
        "Longitude(deg)": 163.83023011485744,
        "Mean Anomaly(deg)": 27.525510618312932,
        "RAAN(deg)": 249.99243911548464,
        "Satellite Name": "Test1 1101",
        "Satellite Number": 1101,
        "Semi-Major Axis(m)": 6980739.136638005,
        "Time(s)": 180
    },
    {
        "Altitude(m)": 604949.7597154438,
        "Argument of Periapsis(deg)": 0.0019795997235263173,
        "Eccentricity": 0.0,
        "Inclination(deg)": 60.0,
        "Latitude(deg)": 24.16495738061036,
        "Longitude(deg)": 164.1588610334312,
        "Mean Anomaly(deg)": 28.14561676377479,
        "RAAN(deg)": 249.9920190663449,
        "Satellite Name": "Test1 1101",
        "Satellite Number": 1101,
        "Semi-Major Axis(m)": 6980739.136638005,
        "Time(s)": 190
    }
]